[{"OBJECT_NAME":"ONEWEB-0045","OBJECT_ID":"2020-008W","EPOCH":"2026-03-09T23:28:07.220640","MEAN_MOTION":13.11416478,"ECCENTRICITY":0.00017385,"INCLINATION":87.8871,"RA_OF_ASC_NODE":40.7766,"ARG_OF_PERICENTER":84.6834,"MEAN_ANOMALY":275.4492,"EPHEMERIS_TYPE":0,"CLASSIFICATION_TYPE":"U","NORAD_CAT_ID":45151,"ELEMENT_SET_NO":999,"REV_AT_EPOCH":29740,"BSTAR":0.0014300953,"MEAN_MOTION_DOT":5.2e-6,"MEAN_MOTION_DDOT":0},{"OBJECT_NAME":"THORAD DELTA 1 DEB","OBJECT_ID":"1974-089ED","EPOCH":"2026-03-09T04:08:45.044448","MEAN_MOTION":13.50105614,"ECCENTRICITY":0.03959707,"INCLINATION":103.2745,"RA_OF_ASC_NODE":329.7379,"ARG_OF_PERICENTER":344.8126,"MEAN_ANOMALY":14.1384,"EPHEMERIS_TYPE":0,"CLASSIFICATION_TYPE":"U","NORAD_CAT_ID":9986,"ELEMENT_SET_NO":999,"REV_AT_EPOCH":41821,"BSTAR":0.015278927,"MEAN_MOTION_DOT":0.00015821,"MEAN_MOTION_DDOT":0}]
